[{"OBJECT_NAME":"ICEYE-X4","OBJECT_ID":"2019-038D","EPOCH":"2026-03-09T23:53:58.416000","MEAN_MOTION":15.26985132,"ECCENTRICITY":0.00122769,"INCLINATION":97.8888,"RA_OF_ASC_NODE":96.1923,"ARG_OF_PERICENTER":293.9914,"MEAN_ANOMALY":66.0038,"EPHEMERIS_TYPE":0,"CLASSIFICATION_TYPE":"U","NORAD_CAT_ID":44390,"ELEMENT_SET_NO":999,"REV_AT_EPOCH":36665,"BSTAR":0.00049915294,"MEAN_MOTION_DOT":0.00013179,"MEAN_MOTION_DDOT":0},{"OBJECT_NAME":"STARLINK-31011","OBJECT_ID":"2023-191K","EPOCH":"2026-03-09T09:54:52.523424","MEAN_MOTION":15.26744803,"ECCENTRICITY":8.44e-5,"INCLINATION":42.9999,"RA_OF_ASC_NODE":104.5994,"ARG_OF_PERICENTER":246.5904,"MEAN_ANOMALY":113.4858,"EPHEMERIS_TYPE":0,"CLASSIFICATION_TYPE":"U","NORAD_CAT_ID":58517,"ELEMENT_SET_NO":999,"REV_AT_EPOCH":12543,"BSTAR":-1.6462929e-5,"MEAN_MOTION_DOT":-7.01e-6,"MEAN_MOTION_DDOT":0}]
